[{"OBJECT_NAME":"STARLINK-33689","OBJECT_ID":"2025-057R","EPOCH":"2026-03-08T22:06:22.362624","MEAN_MOTION":15.27571256,"ECCENTRICITY":0.00015134,"INCLINATION":42.9984,"RA_OF_ASC_NODE":34.861,"ARG_OF_PERICENTER":264.9335,"MEAN_ANOMALY":95.1344,"EPHEMERIS_TYPE":0,"CLASSIFICATION_TYPE":"U","NORAD_CAT_ID":63322,"ELEMENT_SET_NO":999,"REV_AT_EPOCH":5566,"BSTAR":0.0018043075,"MEAN_MOTION_DOT":0.00049711,"MEAN_MOTION_DDOT":0},{"OBJECT_NAME":"SL-3 R\/B","OBJECT_ID":"1983-003B","EPOCH":"2026-03-09T21:31:00.897888","MEAN_MOTION":15.34640469,"ECCENTRICITY":0.00285789,"INCLINATION":81.155,"RA_OF_ASC_NODE":261.9078,"ARG_OF_PERICENTER":155.4571,"MEAN_ANOMALY":204.8036,"EPHEMERIS_TYPE":0,"CLASSIFICATION_TYPE":"U","NORAD_CAT_ID":13771,"ELEMENT_SET_NO":999,"REV_AT_EPOCH":35642,"BSTAR":0.00033440366,"MEAN_MOTION_DOT":0.00011405,"MEAN_MOTION_DDOT":0}]
